[{"OBJECT_NAME":"STARLINK-31014","OBJECT_ID":"2023-192H","EPOCH":"2026-03-09T07:01:53.411520","MEAN_MOTION":15.30210233,"ECCENTRICITY":0.00018261,"INCLINATION":53.1595,"RA_OF_ASC_NODE":64.6517,"ARG_OF_PERICENTER":62.533,"MEAN_ANOMALY":297.5856,"EPHEMERIS_TYPE":0,"CLASSIFICATION_TYPE":"U","NORAD_CAT_ID":58538,"ELEMENT_SET_NO":999,"REV_AT_EPOCH":12592,"BSTAR":-5.3852695e-5,"MEAN_MOTION_DOT":-1.955e-5,"MEAN_MOTION_DDOT":0},{"OBJECT_NAME":"SCS-01 D","OBJECT_ID":"2025-100D","EPOCH":"2026-03-09T18:08:45.040704","MEAN_MOTION":15.31902149,"ECCENTRICITY":0.00063457,"INCLINATION":97.373,"RA_OF_ASC_NODE":145.4097,"ARG_OF_PERICENTER":266.2302,"MEAN_ANOMALY":93.8214,"EPHEMERIS_TYPE":0,"CLASSIFICATION_TYPE":"U","NORAD_CAT_ID":63985,"ELEMENT_SET_NO":999,"REV_AT_EPOCH":4562,"BSTAR":0.0010528181,"MEAN_MOTION_DOT":0.00032471,"MEAN_MOTION_DDOT":0}]
