STARLINK-31014          
1 58538U 23192H   26068.29297930 -.00001955  00000+0 -53853-4 0  9998
2 58538  53.1595  64.6517 0001826  62.5330 297.5856 15.30210233125925
SCS-01 D                
1 63985U 25100D   26068.75607686  .00032471  00000+0  10528-2 0  9990
2 63985  97.3730 145.4097 0006346 266.2302  93.8214 15.31902149 45621
